OBJECT_NAME,OBJECT_ID,EPOCH,MEAN_MOTION,ECCENTRICITY,INCLINATION,RA_OF_ASC_NODE,ARG_OF_PERICENTER,MEAN_ANOMALY,EPHEMERIS_TYPE,CLASSIFICATION_TYPE,NORAD_CAT_ID,ELEMENT_SET_NO,REV_AT_EPOCH,BSTAR,MEAN_MOTION_DOT,MEAN_MOTION_DDOT
COSMOS 2534 (758),2019-030A,2026-07-13T06:55:38.690400,2.13102113,.0013569,64.3707,191.7375,275.0885,88.2179,0,U,44299,999,5548,0,.8E-6,0
BEIDOU-3 IGSO-2 (C39),2019-035A,2026-07-13T07:11:15.802080,1.00258153,.00396012,55.2503,158.6338,216.6143,142.3714,0,U,44337,999,2592,0,-.127E-5,0
GPS BIII-2  (PRN 18),2019-056A,2026-07-12T08:46:49.051200,2.00569838,.00633189,55.6235,330.1426,198.1269,10.0581,0,U,44506,999,5057,0,-.89E-6,0
BEIDOU-3 M24 (C46),2019-061A,2026-07-13T00:23:21.301728,1.86229159,.00086011,54.3975,181.8569,359.3910,0.5969,0,U,44542,999,4627,0,.66E-6,0
BEIDOU-3 M23 (C45),2019-061B,2026-07-13T06:14:16.963584,1.86227330,.00059265,54.3960,181.8172,339.9175,94.8887,0,U,44543,999,4628,0,.62E-6,0
EUTELSAT 5 WEST B (EGNOS/PRN 121),2019-067A,2026-07-13T06:35:49.200000,1.00271523,.00029699,0.0624,354.9316,118.6158,271.5564,0,U,44624,999,2469,0,-.45E-6,0
BEIDOU-3 M22 (C44),2019-078A,2026-07-12T20:33:18.703872,1.86227319,.00056911,53.9110,298.9248,49.8475,310.2295,0,U,44793,999,4512,0,-.62E-6,0
BEIDOU-3 M21 (C43),2019-078B,2026-07-12T11:01:29.008992,1.86227618,.00037026,53.8852,298.8992,52.5088,307.5509,0,U,44794,999,4512,0,-.62E-6,0
COSMOS 2544 (759),2019-088A,2026-07-11T10:20:31.607232,2.13103003,.00123436,65.5781,72.9223,255.3717,104.5561,0,U,44850,999,5123,0,-.19E-6,0
BEIDOU-3 M19 (C41),2019-090A,2026-07-12T08:38:39.850944,1.86231323,.00168515,56.5807,61.9598,297.6742,193.4156,0,U,44864,999,4470,0,-.41E-6,0
BEIDOU-3 M20 (C42),2019-090B,2026-07-12T06:03:50.694912,1.86231124,.00145064,56.5819,61.9971,312.8069,195.7820,0,U,44865,999,4468,0,-.41E-6,0
BEIDOU-3 G2 (C60),2020-017A,2026-07-13T03:34:46.326720,1.00269257,.00019894,2.9142,47.6921,60.7811,316.2876,0,U,45344,999,2352,0,-.144E-5,0
COSMOS 2545 (760),2020-018A,2026-07-07T20:55:22.502208,2.13102711,.00092133,64.3418,311.6924,230.0449,129.8870,0,U,45358,999,4910,0,-.52E-6,0
BEIDOU-3 G3 (C61),2020-040A,2026-07-13T07:08:46.040640,1.00264704,.00017038,2.5080,67.4712,326.9625,114.3593,0,U,45807,999,2233,0,-.358E-5,0
GPS BIII-3  (PRN 23),2020-041A,2026-07-11T09:55:43.247136,2.00557807,.00649629,56.6842,28.0045,204.6177,333.3873,0,U,45854,999,4452,0,-.52E-6,0
GALAXY 30 (WAAS/PRN 135),2020-056C,2026-07-13T05:39:38.740320,1.00271193,.00019536,0.0181,35.4758,79.1056,136.4367,0,U,46114,999,2155,0,.34E-6,0
COSMOS 2547 (705K),2020-075A,2026-07-13T05:21:38.879424,2.13099952,.00094446,64.6015,191.6064,239.9966,119.9273,0,U,46805,999,4446,0,.81E-6,0
GPS BIII-4  (PRN 14),2020-078A,2026-07-12T22:39:22.914144,2.00564842,.00744974,53.9776,209.7341,207.7475,332.4229,0,U,46826,999,4202,0,.84E-6,0
GPS BIII-5  (PRN 11),2021-054A,2026-07-12T22:23:31.401312,2.00567088,.00264065,55.1610,331.4250,228.5393,130.0348,0,U,48859,999,3726,0,-.91E-6,0
QZS-1R (QZSS/PRN 196),2021-096A,2026-07-12T13:50:38.812704,1.00245962,.07550099,37.5114,79.2075,272.2000,278.6576,0,U,49336,999,1726,0,-.3E-5,0
GSAT0223 (GALILEO 27),2021-116A,2026-07-12T19:14:20.037984,1.70475864,.00024308,57.1512,340.9841,195.8611,164.1379,0,U,49809,999,2861,0,-.91E-6,0
GSAT0224 (GALILEO 28),2021-116B,2026-07-13T04:48:54.669600,1.70475928,.00018567,57.1521,340.9718,181.9569,175.5563,0,U,49810,999,2864,0,-.93E-6,0
COSMOS 2557 (706K),2022-075A,2026-07-11T00:59:19.008672,2.13102395,.00107774,64.2833,313.6457,271.9721,87.9097,0,U,52984,999,3122,0,-.63E-6,0
COSMOS 2559 (707K),2022-130A,2026-07-12T17:42:37.179648,2.13101617,.00130551,64.2546,313.6678,180.7672,179.2365,0,U,54031,999,2923,0,-.64E-6,0
COSMOS 2564 (761),2022-161A,2026-07-13T01:12:29.359584,2.13101967,.00122489,64.7437,191.8531,225.0211,134.8990,0,U,54377,999,2818,0,.84E-6,0
GPS BIII-6  (PRN 28),2023-009A,2026-07-13T03:10:26.158944,2.00569666,.00062086,55.1237,147.4991,321.2401,219.8383,0,U,55268,999,2576,0,.1E-6,0
BEIDOU-3 G4 (C62),2023-066A,2026-07-13T07:17:07.738656,1.00273065,.00048706,0.4622,338.3610,187.9729,14.1847,0,U,56564,999,1165,0,-.283E-5,0
NVS-01 (IRNSS-1J),2023-076A,2026-07-13T07:14:08.026656,1.00265489,.0003562,2.1065,243.1740,7.3847,278.6183,0,U,56759,999,1137,0,-.338E-5,0
COSMOS 2569 (703K),2023-114A,2026-07-13T01:30:12.744864,2.13103689,.00097481,65.3169,71.7482,296.0931,63.8786,0,U,57517,999,2281,0,-.12E-6,0
BEIDOU-3 M28 (C50),2023-207A,2026-07-11T23:59:06.940896,1.86229629,.00025144,55.7747,61.4661,3.1911,356.8781,0,U,58654,999,1730,0,-.44E-6,0
BEIDOU-3 M26 (C48),2023-207B,2026-07-12T20:53:57.178752,1.86229638,.00020605,55.7779,61.4233,324.6713,35.3855,0,U,58655,999,1730,0,-.42E-6,0
